{
    "links": {
        "self": "http://www.neowsapp.com/rest/v1/neo/3825434?api_key=iIulBulltgU6a56xZRHN4H3l9WmuAYTsLGpBGhQ2"
    },
    "id": "3825434",
    "neo_reference_id": "3825434",
    "name": "(2018 MG5)",
    "designation": "2018 MG5",
    "nasa_jpl_url": "http://ssd.jpl.nasa.gov/sbdb.cgi?sstr=3825434",
    "absolute_magnitude_h": 24.9,
    "estimated_diameter": {
        "kilometers": {
            "estimated_diameter_min": 0.0278326768,
            "estimated_diameter_max": 0.0622357573
        },
        "meters": {
            "estimated_diameter_min": 27.8326768072,
            "estimated_diameter_max": 62.2357573367
        },
        "miles": {
            "estimated_diameter_min": 0.0172944182,
            "estimated_diameter_max": 0.0386714948
        },
        "feet": {
            "estimated_diameter_min": 91.3145593761,
            "estimated_diameter_max": 204.1855621004
        }
    },
    "is_potentially_hazardous_asteroid": false,
    "close_approach_data": [
        {
            "close_approach_date": "2018-06-23",
            "close_approach_date_full": "2018-Jun-23 18:55",
            "epoch_date_close_approach": 1529780100000,
            "relative_velocity": {
                "kilometers_per_second": "7.9527417315",
                "kilometers_per_hour": "28629.8702333172",
                "miles_per_hour": "17789.4879791409"
            },
            "miss_distance": {
                "astronomical": "0.066141994",
                "lunar": "25.729235666",
                "kilometers": "9894701.41995278",
                "miles": "6148282.362717164"
            },
            "orbiting_body": "Earth"
        }
    ],
    "orbital_data": {
        "orbit_id": "5",
        "orbit_determination_date": "2018-06-29 06:21:36",
        "first_observation_date": "2018-06-15",
        "last_observation_date": "2018-06-24",
        "data_arc_in_days": 9,
        "observations_used": 42,
        "orbit_uncertainty": "8",
        "minimum_orbit_intersection": ".0660339",
        "jupiter_tisserand_invariant": "3.428",
        "epoch_osculation": "2458287.5",
        "eccentricity": ".5247188833712481",
        "semi_major_axis": "2.240358660152395",
        "inclination": "8.158628911562825",
        "ascending_node_longitude": "258.5321239915417",
        "orbital_period": "1224.82700282751",
        "perihelion_distance": "1.064800165646125",
        "perihelion_argument": "25.35288534453231",
        "aphelion_distance": "3.415917154658665",
        "perihelion_time": "2458304.117539294900",
        "mean_anomaly": "355.1157884890243",
        "mean_motion": ".2939190589111287",
        "equinox": "J2000",
        "orbit_class": {
            "orbit_class_type": "AMO",
            "orbit_class_description": "Near-Earth asteroid orbits similar to that of 1221 Amor",
            "orbit_class_range": "1.017 AU < q (perihelion) < 1.3 AU"
        }
    },
    "is_sentry_object": false
}